[{"OBJECT_NAME":"JCSAT-3A","OBJECT_ID":"2006-033A","EPOCH":"2026-03-04T00:57:10.120608","MEAN_MOTION":1.00271089,"ECCENTRICITY":0.0002388,"INCLINATION":0.0404,"RA_OF_ASC_NODE":286.65,"ARG_OF_PERICENTER":85.5661,"MEAN_ANOMALY":291.8525,"EPHEMERIS_TYPE":0,"CLASSIFICATION_TYPE":"U","NORAD_CAT_ID":29272,"ELEMENT_SET_NO":999,"REV_AT_EPOCH":4668,"BSTAR":0,"MEAN_MOTION_DOT":-3.58e-6,"MEAN_MOTION_DDOT":0},{"OBJECT_NAME":"SYRACUSE 3B","OBJECT_ID":"2006-033B","EPOCH":"2026-03-04T03:47:01.335840","MEAN_MOTION":1.00270526,"ECCENTRICITY":0.0004074,"INCLINATION":2.6291,"RA_OF_ASC_NODE":81.3987,"ARG_OF_PERICENTER":261.613,"MEAN_ANOMALY":238.9717,"EPHEMERIS_TYPE":0,"CLASSIFICATION_TYPE":"U","NORAD_CAT_ID":29273,"ELEMENT_SET_NO":999,"REV_AT_EPOCH":7162,"BSTAR":0,"MEAN_MOTION_DOT":1.0e-7,"MEAN_MOTION_DDOT":0},{"OBJECT_NAME":"KOREASAT 5 (MUGUNGWHA 5)","OBJECT_ID":"2006-034A","EPOCH":"2026-03-04T00:52:55.529184","MEAN_MOTION":1.00270427,"ECCENTRICITY":0.0001998,"INCLINATION":1.5131,"RA_OF_ASC_NODE":84.3674,"ARG_OF_PERICENTER":294.0677,"MEAN_ANOMALY":269.634,"EPHEMERIS_TYPE":0,"CLASSIFICATION_TYPE":"U","NORAD_CAT_ID":29349,"ELEMENT_SET_NO":999,"REV_AT_EPOCH":4026,"BSTAR":0,"MEAN_MOTION_DOT":-3.7e-6,"MEAN_MOTION_DDOT":0},{"OBJECT_NAME":"DIRECTV 9S","OBJECT_ID":"2006-043A","EPOCH":"2026-03-04T03:17:11.696352","MEAN_MOTION":1.00272298,"ECCENTRICITY":0.0003157,"INCLINATION":2.1498,"RA_OF_ASC_NODE":82.2061,"ARG_OF_PERICENTER":267.1712,"MEAN_ANOMALY":120.5957,"EPHEMERIS_TYPE":0,"CLASSIFICATION_TYPE":"U","NORAD_CAT_ID":29494,"ELEMENT_SET_NO":999,"REV_AT_EPOCH":5033,"BSTAR":0,"MEAN_MOTION_DOT":-1.25e-6,"MEAN_MOTION_DDOT":0},{"OBJECT_NAME":"OPTUS D1","OBJECT_ID":"2006-043B","EPOCH":"2026-03-03T23:21:20.738016","MEAN_MOTION":1.00272492,"ECCENTRICITY":0.0003904,"INCLINATION":2.7639,"RA_OF_ASC_NODE":80.9746,"ARG_OF_PERICENTER":264.8767,"MEAN_ANOMALY":318.1829,"EPHEMERIS_TYPE":0,"CLASSIFICATION_TYPE":"U","NORAD_CAT_ID":29495,"ELEMENT_SET_NO":999,"REV_AT_EPOCH":7106,"BSTAR":0,"MEAN_MOTION_DOT":-1.95e-6,"MEAN_MOTION_DDOT":0},{"OBJECT_NAME":"BADR-4","OBJECT_ID":"2006-051A","EPOCH":"2026-03-04T02:10:48.061920","MEAN_MOTION":1.00271809,"ECCENTRICITY":0.0007458,"INCLINATION":1.7338,"RA_OF_ASC_NODE":82.2991,"ARG_OF_PERICENTER":262.5138,"MEAN_ANOMALY":235.9467,"EPHEMERIS_TYPE":0,"CLASSIFICATION_TYPE":"U","NORAD_CAT_ID":29526,"ELEMENT_SET_NO":999,"REV_AT_EPOCH":5021,"BSTAR":0,"MEAN_MOTION_DOT":1.33e-6,"MEAN_MOTION_DDOT":0},{"OBJECT_NAME":"WILDBLUE-1","OBJECT_ID":"2006-054A","EPOCH":"2026-03-04T03:14:19.471776","MEAN_MOTION":1.00272874,"ECCENTRICITY":0.000169,"INCLINATION":2.5321,"RA_OF_ASC_NODE":81.8368,"ARG_OF_PERICENTER":266.1509,"MEAN_ANOMALY":111.2744,"EPHEMERIS_TYPE":0,"CLASSIFICATION_TYPE":"U","NORAD_CAT_ID":29643,"ELEMENT_SET_NO":999,"REV_AT_EPOCH":5274,"BSTAR":0,"MEAN_MOTION_DOT":-6.1e-7,"MEAN_MOTION_DDOT":0},{"OBJECT_NAME":"SKYNET 5A","OBJECT_ID":"2007-007B","EPOCH":"2026-03-04T02:30:31.171680","MEAN_MOTION":1.00272548,"ECCENTRICITY":0.0003854,"INCLINATION":5.0333,"RA_OF_ASC_NODE":75.0175,"ARG_OF_PERICENTER":278.1414,"MEAN_ANOMALY":301.5252,"EPHEMERIS_TYPE":0,"CLASSIFICATION_TYPE":"U","NORAD_CAT_ID":30794,"ELEMENT_SET_NO":999,"REV_AT_EPOCH":6964,"BSTAR":0,"MEAN_MOTION_DOT":-2.82e-6,"MEAN_MOTION_DDOT":0},{"OBJECT_NAME":"ANIK F3","OBJECT_ID":"2007-009A","EPOCH":"2026-03-04T03:12:12.175200","MEAN_MOTION":1.00273402,"ECCENTRICITY":0.0002795,"INCLINATION":0.9262,"RA_OF_ASC_NODE":85.2149,"ARG_OF_PERICENTER":265.0912,"MEAN_ANOMALY":100.9231,"EPHEMERIS_TYPE":0,"CLASSIFICATION_TYPE":"U","NORAD_CAT_ID":31102,"ELEMENT_SET_NO":999,"REV_AT_EPOCH":4551,"BSTAR":0,"MEAN_MOTION_DOT":-1.3e-7,"MEAN_MOTION_DDOT":0},{"OBJECT_NAME":"ASTRA 1L","OBJECT_ID":"2007-016A","EPOCH":"2026-03-04T03:39:02.100960","MEAN_MOTION":1.0027129,"ECCENTRICITY":0.0003331,"INCLINATION":1.0502,"RA_OF_ASC_NODE":82.4242,"ARG_OF_PERICENTER":274.8639,"MEAN_ANOMALY":194.9166,"EPHEMERIS_TYPE":0,"CLASSIFICATION_TYPE":"U","NORAD_CAT_ID":31306,"ELEMENT_SET_NO":999,"REV_AT_EPOCH":4393,"BSTAR":0,"MEAN_MOTION_DOT":-1.96e-6,"MEAN_MOTION_DDOT":0},{"OBJECT_NAME":"GALAXY 17 (G-17)","OBJECT_ID":"2007-016B","EPOCH":"2026-03-04T04:19:38.619840","MEAN_MOTION":1.00272085,"ECCENTRICITY":0.0003338,"INCLINATION":2.7061,"RA_OF_ASC_NODE":81.2435,"ARG_OF_PERICENTER":263.0978,"MEAN_ANOMALY":157.4979,"EPHEMERIS_TYPE":0,"CLASSIFICATION_TYPE":"U","NORAD_CAT_ID":31307,"ELEMENT_SET_NO":999,"REV_AT_EPOCH":6875,"BSTAR":0,"MEAN_MOTION_DOT":-2.17e-6,"MEAN_MOTION_DDOT":0},{"OBJECT_NAME":"DIRECTV 10","OBJECT_ID":"2007-032A","EPOCH":"2026-03-04T02:18:02.367936","MEAN_MOTION":0.98336589,"ECCENTRICITY":0.0006596,"INCLINATION":0.1311,"RA_OF_ASC_NODE":100.9813,"ARG_OF_PERICENTER":272.865,"MEAN_ANOMALY":234.3168,"EPHEMERIS_TYPE":0,"CLASSIFICATION_TYPE":"U","NORAD_CAT_ID":31862,"ELEMENT_SET_NO":999,"REV_AT_EPOCH":4453,"BSTAR":0,"MEAN_MOTION_DOT":-1.1e-7,"MEAN_MOTION_DDOT":0},{"OBJECT_NAME":"INTELSAT 11 (IS-11)","OBJECT_ID":"2007-044B","EPOCH":"2026-03-04T03:08:20.045184","MEAN_MOTION":0.99048736,"ECCENTRICITY":0.0005158,"INCLINATION":3.2919,"RA_OF_ASC_NODE":79.9641,"ARG_OF_PERICENTER":205.3432,"MEAN_ANOMALY":151.3636,"EPHEMERIS_TYPE":0,"CLASSIFICATION_TYPE":"U","NORAD_CAT_ID":32253,"ELEMENT_SET_NO":999,"REV_AT_EPOCH":6740,"BSTAR":0,"MEAN_MOTION_DOT":5.9e-7,"MEAN_MOTION_DDOT":0},{"OBJECT_NAME":"WGS F1 (USA 195)","OBJECT_ID":"2007-046A","EPOCH":"2026-03-04T01:55:38.590464","MEAN_MOTION":1.00276213,"ECCENTRICITY":3.16e-5,"INCLINATION":0.0802,"RA_OF_ASC_NODE":87.6404,"ARG_OF_PERICENTER":199.4678,"MEAN_ANOMALY":221.1076,"EPHEMERIS_TYPE":0,"CLASSIFICATION_TYPE":"U","NORAD_CAT_ID":32258,"ELEMENT_SET_NO":999,"REV_AT_EPOCH":5128,"BSTAR":0,"MEAN_MOTION_DOT":-2.8e-6,"MEAN_MOTION_DDOT":0},{"OBJECT_NAME":"SKYNET 5B","OBJECT_ID":"2007-056B","EPOCH":"2026-03-04T02:10:33.086208","MEAN_MOTION":1.00270814,"ECCENTRICITY":0.0004012,"INCLINATION":4.9842,"RA_OF_ASC_NODE":74.7578,"ARG_OF_PERICENTER":268.3029,"MEAN_ANOMALY":236.4758,"EPHEMERIS_TYPE":0,"CLASSIFICATION_TYPE":"U","NORAD_CAT_ID":32294,"ELEMENT_SET_NO":999,"REV_AT_EPOCH":6714,"BSTAR":0,"MEAN_MOTION_DOT":1.29e-6,"MEAN_MOTION_DDOT":0},{"OBJECT_NAME":"ASTRA 4A","OBJECT_ID":"2007-057A","EPOCH":"2026-03-04T03:47:23.799840","MEAN_MOTION":1.00273629,"ECCENTRICITY":0.0002466,"INCLINATION":0.0536,"RA_OF_ASC_NODE":292.9492,"ARG_OF_PERICENTER":54.2024,"MEAN_ANOMALY":236.4141,"EPHEMERIS_TYPE":0,"CLASSIFICATION_TYPE":"U","NORAD_CAT_ID":32299,"ELEMENT_SET_NO":999,"REV_AT_EPOCH":5059,"BSTAR":0,"MEAN_MOTION_DOT":2.0e-7,"MEAN_MOTION_DDOT":0},{"OBJECT_NAME":"HORIZONS-2","OBJECT_ID":"2007-063B","EPOCH":"2026-03-04T03:44:38.901120","MEAN_MOTION":1.00271738,"ECCENTRICITY":0.000283,"INCLINATION":2.3314,"RA_OF_ASC_NODE":81.957,"ARG_OF_PERICENTER":255.6966,"MEAN_ANOMALY":166.6177,"EPHEMERIS_TYPE":0,"CLASSIFICATION_TYPE":"U","NORAD_CAT_ID":32388,"ELEMENT_SET_NO":999,"REV_AT_EPOCH":6676,"BSTAR":0,"MEAN_MOTION_DOT":-2.65e-6,"MEAN_MOTION_DDOT":0}]
