JCSAT-3A                
1 29272U 06033A   26063.03970047 -.00000358  00000+0  00000+0 0  9996
2 29272   0.0404 286.6500 0002388  85.5661 291.8525  1.00271089 46685
SYRACUSE 3B             
1 29273U 06033B   26063.15765435  .00000010  00000+0  00000+0 0  9997
2 29273   2.6291  81.3987 0004074 261.6130 238.9717  1.00270526 71621
KOREASAT 5 (MUGUNGWHA 5)
1 29349U 06034A   26063.03675381 -.00000370  00000+0  00000+0 0  9999
2 29349   1.5131  84.3674 0001998 294.0677 269.6340  1.00270427 40269
DIRECTV 9S              
1 29494U 06043A   26063.13694093 -.00000125  00000+0  00000+0 0  9990
2 29494   2.1498  82.2061 0003157 267.1712 120.5957  1.00272298 50336
OPTUS D1                
1 29495U 06043B   26062.97315669 -.00000195  00000+0  00000+0 0  9998
2 29495   2.7639  80.9746 0003904 264.8767 318.1829  1.00272492 71061
BADR-4                  
1 29526U 06051A   26063.09083405  .00000133  00000+0  00000+0 0  9997
2 29526   1.7338  82.2991 0007458 262.5138 235.9467  1.00271809 50212
WILDBLUE-1              
1 29643U 06054A   26063.13494759 -.00000061  00000+0  00000+0 0  9994
2 29643   2.5321  81.8368 0001690 266.1509 111.2744  1.00272874 52747
SKYNET 5A               
1 30794U 07007B   26063.10452745 -.00000282  00000+0  00000+0 0  9993
2 30794   5.0333  75.0175 0003854 278.1414 301.5252  1.00272548 69643
ANIK F3                 
1 31102U 07009A   26063.13347425 -.00000013  00000+0  00000+0 0  9992
2 31102   0.9262  85.2149 0002795 265.0912 100.9231  1.00273402 45515
ASTRA 1L                
1 31306U 07016A   26063.15210765 -.00000196  00000+0  00000+0 0  9996
2 31306   1.0502  82.4242 0003331 274.8639 194.9166  1.00271290 43931
GALAXY 17 (G-17)        
1 31307U 07016B   26063.18030810 -.00000217  00000+0  00000+0 0  9995
2 31307   2.7061  81.2435 0003338 263.0978 157.4979  1.00272085 68750
DIRECTV 10              
1 31862U 07032A   26063.09586074 -.00000011  00000+0  00000+0 0  9999
2 31862   0.1311 100.9813 0006596 272.8650 234.3168  0.98336589 44530
INTELSAT 11 (IS-11)     
1 32253U 07044B   26063.13078756  .00000059  00000+0  00000+0 0  9996
2 32253   3.2919  79.9641 0005158 205.3432 151.3636  0.99048736 67403
WGS F1 (USA 195)        
1 32258U 07046A   26063.08030776 -.00000280  00000+0  00000+0 0  9994
2 32258   0.0802  87.6404 0000316 199.4678 221.1076  1.00276213 51282
SKYNET 5B               
1 32294U 07056B   26063.09066072  .00000129  00000+0  00000+0 0  9995
2 32294   4.9842  74.7578 0004012 268.3029 236.4758  1.00270814 67140
ASTRA 4A                
1 32299U 07057A   26063.15791435  .00000020  00000+0  00000+0 0  9996
2 32299   0.0536 292.9492 0002466  54.2024 236.4141  1.00273629 50593
HORIZONS-2              
1 32388U 07063B   26063.15600580 -.00000265  00000+0  00000+0 0  9994
2 32388   2.3314  81.9570 0002830 255.6966 166.6177  1.00271738 66769
